[{"OBJECT_NAME":"STARLINK-35945","OBJECT_ID":"2025-286A","EPOCH":"2026-03-09T22:32:19.946400","MEAN_MOTION":15.30210803,"ECCENTRICITY":0.00012597,"INCLINATION":53.1617,"RA_OF_ASC_NODE":357.3758,"ARG_OF_PERICENTER":91.5738,"MEAN_ANOMALY":268.5407,"EPHEMERIS_TYPE":0,"CLASSIFICATION_TYPE":"U","NORAD_CAT_ID":66925,"ELEMENT_SET_NO":999,"REV_AT_EPOCH":1545,"BSTAR":0.00097092818,"MEAN_MOTION_DOT":0.00028517,"MEAN_MOTION_DDOT":0},{"OBJECT_NAME":"ARIANE 40 R\/B","OBJECT_ID":"1999-064C","EPOCH":"2026-03-09T18:24:37.025280","MEAN_MOTION":15.31364882,"ECCENTRICITY":0.00050095,"INCLINATION":98.1631,"RA_OF_ASC_NODE":150.8872,"ARG_OF_PERICENTER":91.4057,"MEAN_ANOMALY":268.7755,"EPHEMERIS_TYPE":0,"CLASSIFICATION_TYPE":"U","NORAD_CAT_ID":25979,"ELEMENT_SET_NO":999,"REV_AT_EPOCH":42869,"BSTAR":0.00066758353,"MEAN_MOTION_DOT":0.00020173,"MEAN_MOTION_DDOT":0}]
